{
    "links": {
        "self": "http://www.neowsapp.com/rest/v1/neo/3457439?api_key=iIulBulltgU6a56xZRHN4H3l9WmuAYTsLGpBGhQ2"
    },
    "id": "3457439",
    "neo_reference_id": "3457439",
    "name": "(2009 HW2)",
    "designation": "2009 HW2",
    "nasa_jpl_url": "http://ssd.jpl.nasa.gov/sbdb.cgi?sstr=3457439",
    "absolute_magnitude_h": 24.0,
    "estimated_diameter": {
        "kilometers": {
            "estimated_diameter_min": 0.0421264611,
            "estimated_diameter_max": 0.0941976306
        },
        "meters": {
            "estimated_diameter_min": 42.1264610556,
            "estimated_diameter_max": 94.1976305719
        },
        "miles": {
            "estimated_diameter_min": 0.0261761612,
            "estimated_diameter_max": 0.0585316759
        },
        "feet": {
            "estimated_diameter_min": 138.2101784897,
            "estimated_diameter_max": 309.0473542854
        }
    },
    "is_potentially_hazardous_asteroid": false,
    "close_approach_data": [
        {
            "close_approach_date": "2009-04-09",
            "close_approach_date_full": "2009-Apr-09 02:29",
            "epoch_date_close_approach": 1239244140000,
            "relative_velocity": {
                "kilometers_per_second": "6.3809655792",
                "kilometers_per_hour": "22971.4760852521",
                "miles_per_hour": "14273.5819041946"
            },
            "miss_distance": {
                "astronomical": "0.0551334392",
                "lunar": "21.4469078488",
                "kilometers": "8247845.070094504",
                "miles": "5124973.2783879952"
            },
            "orbiting_body": "Earth"
        }
    ],
    "orbital_data": {
        "orbit_id": "9",
        "orbit_determination_date": "2017-04-06 09:00:46",
        "first_observation_date": "2009-03-01",
        "last_observation_date": "2009-04-22",
        "data_arc_in_days": 52,
        "observations_used": 32,
        "orbit_uncertainty": "7",
        "minimum_orbit_intersection": ".0412428",
        "jupiter_tisserand_invariant": "3.488",
        "epoch_osculation": "2459000.5",
        "eccentricity": ".5217174947131403",
        "semi_major_axis": "2.182513081771351",
        "inclination": "2.878771583934654",
        "ascending_node_longitude": "211.3874383300259",
        "orbital_period": "1177.697383355782",
        "perihelion_distance": "1.043857824570947",
        "perihelion_argument": "350.7040259798317",
        "aphelion_distance": "3.321168338971756",
        "perihelion_time": "2458470.221221998741",
        "mean_anomaly": "162.0962759860206",
        "mean_motion": ".3056812429812831",
        "equinox": "J2000",
        "orbit_class": {
            "orbit_class_type": "AMO",
            "orbit_class_description": "Near-Earth asteroid orbits similar to that of 1221 Amor",
            "orbit_class_range": "1.017 AU < q (perihelion) < 1.3 AU"
        }
    },
    "is_sentry_object": false
}